HXMT (HUIYAN)           
1 42758U 17034A   26095.30129144  .00009040  00000+0  44454-3 0  9993
2 42758  43.0142 228.6834 0030810  41.1588 319.1577 15.17831714486586
SAOCOM 1A               
1 43641U 18076A   26094.81958130  .00001432  00000+0  18641-3 0  9998
2 43641  97.8896 282.6237 0001476  86.6110 273.5272 14.82153107405231
H-2A R/B                
1 43682U 18084L   26095.14503952  .00023691  00000+0  54183-3 0  9999
2 43682  98.8681 318.2074 0023236 292.0652  67.8123 15.42560522409857
SAOCOM 1B               
1 46265U 20059A   26095.25589662  .00000244  00000+0  37257-4 0  9991
2 46265  97.8883 282.1500 0001416  84.2298 275.9076 14.82149925302681
CSS (TIANHE)            
1 48274U 21035A   26095.26060825  .00034768  00000+0  38992-3 0  9998
2 48274  41.4682  46.3215 0003546 128.6293 231.4864 15.61939070281765
COSMOS 2550             
1 48865U 21056A   26094.40472941  .00002815  00000+0  91326-4 0  9997
2 48865  67.1431 323.0974 0008430 269.6767  90.3422 15.33837300267403
CZ-2C R/B               
1 52794U 22058K   26095.24085150  .00044151  00000+0  59342-3 0  9991
2 52794  50.1867 181.5046 0041105 314.8441  44.9194 15.56391738214261
CZ-2C R/B               
1 54039U 22132E   26094.93955842  .00050326  00000+0  51975-3 0  9992
2 54039  97.2955  99.1025 0015695   2.6224 357.5115 15.64475351194471
GSLV R/B                
1 54149U 22138AN  26095.19407473  .00003724  00000+0  31994-3 0  9990
2 54149  87.3847 157.4876 0023608  59.5844 300.7716 14.96953742187891
XRISM                   
1 57800U 23137A   26095.31685055  .00006668  00000+0  37480-3 0  9991
2 57800  31.0012 111.3941 0007823 306.0861  53.9053 15.11832006141821
ACS3                    
1 59588U 24077B   26094.76788555  .00040672  00000+0  31622-1 0  9990
2 59588  97.1949  30.0195 0073359  18.0260 342.3481 13.90931246 97827
HTV-X1                  
1 66174U 25241A   26095.19137777  .00007088  00000+0  23350-3 0  9990
2 66174  51.6362 305.3144 0007368 275.0923  84.9217 15.32544764 25000
SZ-21 MODULE            
1 66515U 25246C   26095.22396600  .00051413  00000+0  40162-3 0  9991
2 66515  41.4750  39.7632 0003443 230.9448 129.1088 15.70779178 22241
